[{"OBJECT_NAME":"STARLINK-36693","OBJECT_ID":"2026-026X","EPOCH":"2026-03-05T20:00:00.999360","MEAN_MOTION":15.62829186,"ECCENTRICITY":0.000161,"INCLINATION":97.2847,"RA_OF_ASC_NODE":119.3369,"ARG_OF_PERICENTER":70.6225,"MEAN_ANOMALY":326.8167,"EPHEMERIS_TYPE":0,"CLASSIFICATION_TYPE":"U","NORAD_CAT_ID":67742,"ELEMENT_SET_NO":999,"REV_AT_EPOCH":483,"BSTAR":-0.025002,"MEAN_MOTION_DOT":-0.01980427,"MEAN_MOTION_DDOT":0},{"OBJECT_NAME":"STARLINK-36717","OBJECT_ID":"2026-026Y","EPOCH":"2026-03-05T20:00:00.999360","MEAN_MOTION":15.64942375,"ECCENTRICITY":0.0001694,"INCLINATION":97.2848,"RA_OF_ASC_NODE":119.3561,"ARG_OF_PERICENTER":70.2758,"MEAN_ANOMALY":13.3807,"EPHEMERIS_TYPE":0,"CLASSIFICATION_TYPE":"U","NORAD_CAT_ID":67743,"ELEMENT_SET_NO":999,"REV_AT_EPOCH":483,"BSTAR":-0.023131,"MEAN_MOTION_DOT":-0.01990845,"MEAN_MOTION_DDOT":0},{"OBJECT_NAME":"STARLINK-36692","OBJECT_ID":"2026-026Z","EPOCH":"2026-03-05T20:00:00.999360","MEAN_MOTION":15.63695483,"ECCENTRICITY":0.0001649,"INCLINATION":97.2848,"RA_OF_ASC_NODE":119.3458,"ARG_OF_PERICENTER":66.4879,"MEAN_ANOMALY":352.3099,"EPHEMERIS_TYPE":0,"CLASSIFICATION_TYPE":"U","NORAD_CAT_ID":67744,"ELEMENT_SET_NO":999,"REV_AT_EPOCH":469,"BSTAR":-0.024185,"MEAN_MOTION_DOT":-0.01982003,"MEAN_MOTION_DDOT":0},{"OBJECT_NAME":"2026-027A","OBJECT_ID":"2026-027A","EPOCH":"2026-03-05T19:31:19.953696","MEAN_MOTION":15.17620796,"ECCENTRICITY":0.0009878,"INCLINATION":97.4904,"RA_OF_ASC_NODE":193.8677,"ARG_OF_PERICENTER":207.8725,"MEAN_ANOMALY":152.1981,"EPHEMERIS_TYPE":0,"CLASSIFICATION_TYPE":"U","NORAD_CAT_ID":67746,"ELEMENT_SET_NO":999,"REV_AT_EPOCH":327,"BSTAR":0.00055579,"MEAN_MOTION_DOT":0.00011133,"MEAN_MOTION_DDOT":0},{"OBJECT_NAME":"2026-027B","OBJECT_ID":"2026-027B","EPOCH":"2026-03-05T19:29:16.120032","MEAN_MOTION":15.17720824,"ECCENTRICITY":0.0009998,"INCLINATION":97.4898,"RA_OF_ASC_NODE":193.868,"ARG_OF_PERICENTER":210.2674,"MEAN_ANOMALY":149.7984,"EPHEMERIS_TYPE":0,"CLASSIFICATION_TYPE":"U","NORAD_CAT_ID":67747,"ELEMENT_SET_NO":999,"REV_AT_EPOCH":327,"BSTAR":0.00054357,"MEAN_MOTION_DOT":0.00010918,"MEAN_MOTION_DDOT":0},{"OBJECT_NAME":"2026-027C","OBJECT_ID":"2026-027C","EPOCH":"2026-03-05T19:27:17.294112","MEAN_MOTION":15.17752788,"ECCENTRICITY":0.0010359,"INCLINATION":97.491,"RA_OF_ASC_NODE":193.8732,"ARG_OF_PERICENTER":212.8884,"MEAN_ANOMALY":147.1706,"EPHEMERIS_TYPE":0,"CLASSIFICATION_TYPE":"U","NORAD_CAT_ID":67748,"ELEMENT_SET_NO":999,"REV_AT_EPOCH":327,"BSTAR":0.00038142,"MEAN_MOTION_DOT":7.645e-5,"MEAN_MOTION_DDOT":0},{"OBJECT_NAME":"2026-027D","OBJECT_ID":"2026-027D","EPOCH":"2026-03-05T19:22:55.548768","MEAN_MOTION":15.18067531,"ECCENTRICITY":0.0010002,"INCLINATION":97.4905,"RA_OF_ASC_NODE":193.876,"ARG_OF_PERICENTER":218.0888,"MEAN_ANOMALY":141.964,"EPHEMERIS_TYPE":0,"CLASSIFICATION_TYPE":"U","NORAD_CAT_ID":67749,"ELEMENT_SET_NO":999,"REV_AT_EPOCH":322,"BSTAR":0.00062939,"MEAN_MOTION_DOT":0.00012782,"MEAN_MOTION_DDOT":0},{"OBJECT_NAME":"2026-027E","OBJECT_ID":"2026-027E","EPOCH":"2026-03-05T19:23:03.276384","MEAN_MOTION":15.18027868,"ECCENTRICITY":0.0009232,"INCLINATION":97.4916,"RA_OF_ASC_NODE":193.8789,"ARG_OF_PERICENTER":218.8097,"MEAN_ANOMALY":141.2475,"EPHEMERIS_TYPE":0,"CLASSIFICATION_TYPE":"U","NORAD_CAT_ID":67750,"ELEMENT_SET_NO":999,"REV_AT_EPOCH":327,"BSTAR":0.00054157,"MEAN_MOTION_DOT":0.00010972,"MEAN_MOTION_DDOT":0},{"OBJECT_NAME":"2026-027F","OBJECT_ID":"2026-027F","EPOCH":"2026-03-05T19:20:01.451904","MEAN_MOTION":15.18311404,"ECCENTRICITY":0.0010399,"INCLINATION":97.4914,"RA_OF_ASC_NODE":193.8823,"ARG_OF_PERICENTER":219.6482,"MEAN_ANOMALY":140.3993,"EPHEMERIS_TYPE":0,"CLASSIFICATION_TYPE":"U","NORAD_CAT_ID":67751,"ELEMENT_SET_NO":999,"REV_AT_EPOCH":327,"BSTAR":0.00069595,"MEAN_MOTION_DOT":0.00014245,"MEAN_MOTION_DDOT":0},{"OBJECT_NAME":"2026-027G","OBJECT_ID":"2026-027G","EPOCH":"2026-03-04T13:18:19.429056","MEAN_MOTION":15.15895723,"ECCENTRICITY":0.0009268,"INCLINATION":97.4863,"RA_OF_ASC_NODE":192.6273,"ARG_OF_PERICENTER":274.5857,"MEAN_ANOMALY":85.4317,"EPHEMERIS_TYPE":0,"CLASSIFICATION_TYPE":"U","NORAD_CAT_ID":67752,"ELEMENT_SET_NO":999,"REV_AT_EPOCH":308,"BSTAR":0.00066333,"MEAN_MOTION_DOT":0.00012661,"MEAN_MOTION_DDOT":0},{"OBJECT_NAME":"JIELONG-3 R/B","OBJECT_ID":"2026-027H","EPOCH":"2026-03-05T19:41:47.254848","MEAN_MOTION":15.71880789,"ECCENTRICITY":0.0226585,"INCLINATION":97.5127,"RA_OF_ASC_NODE":195.5336,"ARG_OF_PERICENTER":259.0675,"MEAN_ANOMALY":98.5022,"EPHEMERIS_TYPE":0,"CLASSIFICATION_TYPE":"U","NORAD_CAT_ID":67753,"ELEMENT_SET_NO":999,"REV_AT_EPOCH":337,"BSTAR":0.00066528,"MEAN_MOTION_DOT":0.00456729,"MEAN_MOTION_DDOT":2.3767e-6},{"OBJECT_NAME":"JIELONG-3 DEB","OBJECT_ID":"2026-027J","EPOCH":"2026-03-05T19:14:26.508480","MEAN_MOTION":16.00351998,"ECCENTRICITY":0.0140072,"INCLINATION":97.5033,"RA_OF_ASC_NODE":195.8634,"ARG_OF_PERICENTER":259.0818,"MEAN_ANOMALY":99.4673,"EPHEMERIS_TYPE":0,"CLASSIFICATION_TYPE":"U","NORAD_CAT_ID":67754,"ELEMENT_SET_NO":999,"REV_AT_EPOCH":333,"BSTAR":0.0012456,"MEAN_MOTION_DOT":0.02110193,"MEAN_MOTION_DDOT":2.4513e-6},{"OBJECT_NAME":"2026-028A","OBJECT_ID":"2026-028A","EPOCH":"2026-03-05T07:50:47.759424","MEAN_MOTION":0.99523916,"ECCENTRICITY":0.0041996,"INCLINATION":0.4807,"RA_OF_ASC_NODE":289.7482,"ARG_OF_PERICENTER":229.1276,"MEAN_ANOMALY":201.2673,"EPHEMERIS_TYPE":0,"CLASSIFICATION_TYPE":"U","NORAD_CAT_ID":67756,"ELEMENT_SET_NO":999,"REV_AT_EPOCH":21,"BSTAR":0,"MEAN_MOTION_DOT":4.0e-8,"MEAN_MOTION_DDOT":0},{"OBJECT_NAME":"JAM-E JAM 1","OBJECT_ID":"2026-028B","EPOCH":"2026-03-05T19:17:48.682752","MEAN_MOTION":1.0024712,"ECCENTRICITY":0.0004837,"INCLINATION":0.5016,"RA_OF_ASC_NODE":285.6507,"ARG_OF_PERICENTER":120.3032,"MEAN_ANOMALY":81.7187,"EPHEMERIS_TYPE":0,"CLASSIFICATION_TYPE":"U","NORAD_CAT_ID":67757,"ELEMENT_SET_NO":999,"REV_AT_EPOCH":8,"BSTAR":0,"MEAN_MOTION_DOT":1.49e-6,"MEAN_MOTION_DDOT":0},{"OBJECT_NAME":"KUIPER-00159","OBJECT_ID":"2026-030A","EPOCH":"2026-03-05T19:01:32.754144","MEAN_MOTION":15.35567797,"ECCENTRICITY":0.0004681,"INCLINATION":51.8846,"RA_OF_ASC_NODE":237.9568,"ARG_OF_PERICENTER":35.0548,"MEAN_ANOMALY":325.0745,"EPHEMERIS_TYPE":0,"CLASSIFICATION_TYPE":"U","NORAD_CAT_ID":67764,"ELEMENT_SET_NO":999,"REV_AT_EPOCH":449,"BSTAR":0.00079102,"MEAN_MOTION_DOT":0.00027492,"MEAN_MOTION_DDOT":0},{"OBJECT_NAME":"KUIPER-00160","OBJECT_ID":"2026-030B","EPOCH":"2026-03-05T19:03:20.060352","MEAN_MOTION":15.3541077,"ECCENTRICITY":0.0005069,"INCLINATION":51.8815,"RA_OF_ASC_NODE":237.957,"ARG_OF_PERICENTER":43.8107,"MEAN_ANOMALY":316.328,"EPHEMERIS_TYPE":0,"CLASSIFICATION_TYPE":"U","NORAD_CAT_ID":67765,"ELEMENT_SET_NO":999,"REV_AT_EPOCH":449,"BSTAR":0.0010312,"MEAN_MOTION_DOT":0.00035815,"MEAN_MOTION_DDOT":0},{"OBJECT_NAME":"KUIPER-00177","OBJECT_ID":"2026-030C","EPOCH":"2026-03-05T18:45:25.417152","MEAN_MOTION":15.36355024,"ECCENTRICITY":0.0001156,"INCLINATION":51.8828,"RA_OF_ASC_NODE":237.8821,"ARG_OF_PERICENTER":18.0817,"MEAN_ANOMALY":342.0211,"EPHEMERIS_TYPE":0,"CLASSIFICATION_TYPE":"U","NORAD_CAT_ID":67766,"ELEMENT_SET_NO":999,"REV_AT_EPOCH":449,"BSTAR":0.0009295,"MEAN_MOTION_DOT":0.00033225,"MEAN_MOTION_DDOT":0}]
