STARLINK-36693          
1 67742U 26026X   26064.83334490 -.01980427  00000+0 -25002-1 0  9996
2 67742  97.2847 119.3369 0001610  70.6225 326.8167 15.62829186  4833
STARLINK-36717          
1 67743U 26026Y   26064.83334490 -.01990845  00000+0 -23131-1 0  9993
2 67743  97.2848 119.3561 0001694  70.2758  13.3807 15.64942375  4835
STARLINK-36692          
1 67744U 26026Z   26064.83334490 -.01982003  00000+0 -24185-1 0  9991
2 67744  97.2848 119.3458 0001649  66.4879 352.3099 15.63695483  4699
2026-027A               
1 67746U 26027A   26064.81342539  .00011133  00000+0  55579-3 0  9992
2 67746  97.4904 193.8677 0009878 207.8725 152.1981 15.17620796  3272
2026-027B               
1 67747U 26027B   26064.81199213  .00010918  00000+0  54357-3 0  9995
2 67747  97.4898 193.8680 0009998 210.2674 149.7984 15.17720824  3271
2026-027C               
1 67748U 26027C   26064.81061683  .00007645  00000+0  38142-3 0  9992
2 67748  97.4910 193.8732 0010359 212.8884 147.1706 15.17752788  3277
2026-027D               
1 67749U 26027D   26064.80758737  .00012782  00000+0  62939-3 0  9994
2 67749  97.4905 193.8760 0010002 218.0888 141.9640 15.18067531  3220
2026-027E               
1 67750U 26027E   26064.80767681  .00010972  00000+0  54157-3 0  9996
2 67750  97.4916 193.8789 0009232 218.8097 141.2475 15.18027868  3271
2026-027F               
1 67751U 26027F   26064.80557236  .00014245  00000+0  69595-3 0  9999
2 67751  97.4914 193.8823 0010399 219.6482 140.3993 15.18311404  3279
2026-027G               
1 67752U 26027G   26063.55439154  .00012661  00000+0  66333-3 0  9996
2 67752  97.4863 192.6273 0009268 274.5857  85.4317 15.15895723  3084
JIELONG-3 R/B           
1 67753U 26027H   26064.82068582  .00456729  23767-5  66528-3 0  9995
2 67753  97.5127 195.5336 0226585 259.0675  98.5022 15.71880789  3378
JIELONG-3 DEB           
1 67754U 26027J   26064.80169570  .02110193  24513-5  12456-2 0  9997
2 67754  97.5033 195.8634 0140072 259.0818  99.4673 16.00351998  3330
2026-028A               
1 67756U 26028A   26064.32694166  .00000004  00000+0  00000+0 0  9996
2 67756   0.4807 289.7482 0041996 229.1276 201.2673  0.99523916   218
JAM-E JAM 1             
1 67757U 26028B   26064.80403568  .00000149  00000+0  00000+0 0  9994
2 67757   0.5016 285.6507 0004837 120.3032  81.7187  1.00247120    89
KUIPER-00159            
1 67764U 26030A   26064.79274021  .00027492  00000+0  79102-3 0  9996
2 67764  51.8846 237.9568 0004681  35.0548 325.0745 15.35567797  4496
KUIPER-00160            
1 67765U 26030B   26064.79398218  .00035815  00000+0  10312-2 0  9997
2 67765  51.8815 237.9570 0005069  43.8107 316.3280 15.35410770  4490
KUIPER-00177            
1 67766U 26030C   26064.78154418  .00033225  00000+0  92950-3 0  9991
2 67766  51.8828 237.8821 0001156  18.0817 342.0211 15.36355024  4499
